{
  "type": "FeatureCollection",
  "features": [
    {
      "type": "Feature",
      "properties": {
        "norad_id": 64751,
        "name": "PROGRESS-MS 31",
        "group": "stations",
        "lat": -51.51649546690962,
        "lon": 3.355360916102605,
        "alt_km": 419.991918487186,
        "timestamp": "2025-12-23T14:49:08.002222+00:00",
        "meta_object_name": "PROGRESS-MS 31",
        "meta_object_id": "2025-146A",
        "meta_epoch": "2025-12-23T04:21:36.091008",
        "meta_mean_motion": 15.49746572,
        "meta_eccentricity": 0.00031904,
        "meta_inclination": 51.6323,
        "meta_ra_of_asc_node": 90.7678,
        "meta_arg_of_pericenter": 289.6661,
        "meta_mean_anomaly": 70.3984,
        "meta_ephemeris_type": 0,
        "meta_classification_type": "U",
        "meta_norad_cat_id": 64751,
        "meta_element_set_no": 999,
        "meta_rev_at_epoch": 675,
        "meta_bstar": 0.00021350548,
        "meta_mean_motion_dot": 0.00011641,
        "meta_mean_motion_ddot": 0,
        "tle_line1": "1 64751U 25146A   25357.18166772  .00011641  00000+0  21351-3 0  9998",
        "tle_line2": "2 64751  51.6323  90.7678 0003190 289.6661  70.3984 15.49746572  6752"
      },
      "geometry": {
        "type": "Point",
        "coordinates": [
          3.355360916102605,
          -51.51649546690962
        ]
      }
    },
    {
      "type": "Feature",
      "properties": {
        "norad_id": 64786,
        "name": "TIANZHOU-9",
        "group": "stations",
        "lat": 41.35441207134159,
        "lon": 35.99677705985759,
        "alt_km": 377.91697352193296,
        "timestamp": "2025-12-23T14:49:08.002233+00:00",
        "meta_object_name": "TIANZHOU-9",
        "meta_object_id": "2025-149A",
        "meta_epoch": "2025-12-23T06:45:56.635200",
        "meta_mean_motion": 15.59596422,
        "meta_eccentricity": 0.0007971,
        "meta_inclination": 41.4686,
        "meta_ra_of_asc_node": 312.6856,
        "meta_arg_of_pericenter": 124.3462,
        "meta_mean_anomaly": 235.8132,
        "meta_ephemeris_type": 0,
        "meta_classification_type": "U",
        "meta_norad_cat_id": 64786,
        "meta_element_set_no": 999,
        "meta_rev_at_epoch": 25530,
        "meta_bstar": 0.00022671035,
        "meta_mean_motion_dot": 0.00018298,
        "meta_mean_motion_ddot": 0,
        "tle_line1": "1 64786U 25149A   25357.28190550  .00018298  00000+0  22671-3 0  9992",
        "tle_line2": "2 64786  41.4686 312.6856 0007971 124.3462 235.8132 15.59596422255306"
      },
      "geometry": {
        "type": "Point",
        "coordinates": [
          35.99677705985759,
          41.35441207134159
        ]
      }
    },
    {
      "type": "Feature",
      "properties": {
        "norad_id": 65077,
        "name": "CREW DRAGON 11",
        "group": "stations",
        "lat": -51.51649536225664,
        "lon": 3.3553635018257495,
        "alt_km": 419.9919184652399,
        "timestamp": "2025-12-23T14:49:08.002247+00:00",
        "meta_object_name": "CREW DRAGON 11",
        "meta_object_id": "2025-166A",
        "meta_epoch": "2025-12-23T04:21:36.091008",
        "meta_mean_motion": 15.49746572,
        "meta_eccentricity": 0.00031904,
        "meta_inclination": 51.6323,
        "meta_ra_of_asc_node": 90.7678,
        "meta_arg_of_pericenter": 289.6661,
        "meta_mean_anomaly": 70.3984,
        "meta_ephemeris_type": 0,
        "meta_classification_type": "U",
        "meta_norad_cat_id": 65077,
        "meta_element_set_no": 999,
        "meta_rev_at_epoch": 214,
        "meta_bstar": 0.00021350548,
        "meta_mean_motion_dot": 0.00011641,
        "meta_mean_motion_ddot": 0,
        "tle_line1": "1 65077U 25166A   25357.18166772  .00011641  00000+0  21351-3 0  9992",
        "tle_line2": "2 65077  51.6323  90.7678 0003190 289.6661  70.3984 15.49746572  2143"
      },
      "geometry": {
        "type": "Point",
        "coordinates": [
          3.3553635018257495,
          -51.51649536225664
        ]
      }
    },
    {
      "type": "Feature",
      "properties": {
        "norad_id": 65304,
        "name": "DRAGON CRS-33",
        "group": "stations",
        "lat": -51.516495312023224,
        "lon": 3.3553647429722715,
        "alt_km": 419.99191845470796,
        "timestamp": "2025-12-23T14:49:08.002259+00:00",
        "meta_object_name": "DRAGON CRS-33",
        "meta_object_id": "2025-186A",
        "meta_epoch": "2025-12-23T04:21:36.091008",
        "meta_mean_motion": 15.49746572,
        "meta_eccentricity": 0.00031904,
        "meta_inclination": 51.6323,
        "meta_ra_of_asc_node": 90.7678,
        "meta_arg_of_pericenter": 289.6661,
        "meta_mean_anomaly": 70.3984,
        "meta_ephemeris_type": 0,
        "meta_classification_type": "U",
        "meta_norad_cat_id": 65304,
        "meta_element_set_no": 999,
        "meta_rev_at_epoch": 11,
        "meta_bstar": 0.00021350548,
        "meta_mean_motion_dot": 0.00011641,
        "meta_mean_motion_ddot": 0,
        "tle_line1": "1 65304U 25186A   25357.18166772  .00011641  00000+0  21351-3 0  9997",
        "tle_line2": "2 65304  51.6323  90.7678 0003190 289.6661  70.3984 15.49746572   111"
      },
      "geometry": {
        "type": "Point",
        "coordinates": [
          3.3553647429722715,
          -51.516495312023224
        ]
      }
    },
    {
      "type": "Feature",
      "properties": {
        "norad_id": 65586,
        "name": "PROGRESS-MS 32",
        "group": "stations",
        "lat": -51.51649527016201,
        "lon": 3.3553657772613774,
        "alt_km": 419.9919184459295,
        "timestamp": "2025-12-23T14:49:08.002269+00:00",
        "meta_object_name": "PROGRESS-MS 32",
        "meta_object_id": "2025-204A",
        "meta_epoch": "2025-12-23T04:21:36.091008",
        "meta_mean_motion": 15.49746572,
        "meta_eccentricity": 0.00031904,
        "meta_inclination": 51.6323,
        "meta_ra_of_asc_node": 90.7678,
        "meta_arg_of_pericenter": 289.6661,
        "meta_mean_anomaly": 70.3984,
        "meta_ephemeris_type": 0,
        "meta_classification_type": "U",
        "meta_norad_cat_id": 65586,
        "meta_element_set_no": 999,
        "meta_rev_at_epoch": 27,
        "meta_bstar": 0.00021350548,
        "meta_mean_motion_dot": 0.00011641,
        "meta_mean_motion_ddot": 0,
        "tle_line1": "1 65586U 25204A   25357.18166772  .00011641  00000+0  21351-3 0  9990",
        "tle_line2": "2 65586  51.6323  90.7678 0003190 289.6661  70.3984 15.49746572   270"
      },
      "geometry": {
        "type": "Point",
        "coordinates": [
          3.3553657772613774,
          -51.51649527016201
        ]
      }
    },
    {
      "type": "Feature",
      "properties": {
        "norad_id": 65616,
        "name": "CYGNUS NG-23",
        "group": "stations",
        "lat": -51.516495224114635,
        "lon": 3.355366914980441,
        "alt_km": 419.9919184362707,
        "timestamp": "2025-12-23T14:49:08.002280+00:00",
        "meta_object_name": "CYGNUS NG-23",
        "meta_object_id": "2025-208A",
        "meta_epoch": "2025-12-23T04:21:36.091008",
        "meta_mean_motion": 15.49746572,
        "meta_eccentricity": 0.00031904,
        "meta_inclination": 51.6323,
        "meta_ra_of_asc_node": 90.7678,
        "meta_arg_of_pericenter": 289.6661,
        "meta_mean_anomaly": 70.3984,
        "meta_ephemeris_type": 0,
        "meta_classification_type": "U",
        "meta_norad_cat_id": 65616,
        "meta_element_set_no": 999,
        "meta_rev_at_epoch": 22,
        "meta_bstar": 0.00021350548,
        "meta_mean_motion_dot": 0.00011641,
        "meta_mean_motion_ddot": 0,
        "tle_line1": "1 65616U 25208A   25357.18166772  .00011641  00000+0  21351-3 0  9998",
        "tle_line2": "2 65616  51.6323  90.7678 0003190 289.6661  70.3984 15.49746572   229"
      },
      "geometry": {
        "type": "Point",
        "coordinates": [
          3.355366914980441,
          -51.516495224114635
        ]
      }
    },
    {
      "type": "Feature",
      "properties": {
        "norad_id": 65729,
        "name": "DRAGONFLY",
        "group": "stations",
        "lat": 44.83125564755109,
        "lon": -152.07227228709982,
        "alt_km": 340.45746626469645,
        "timestamp": "2025-12-23T14:49:08.002291+00:00",
        "meta_object_name": "DRAGONFLY",
        "meta_object_id": "1998-067XH",
        "meta_epoch": "2025-12-22T15:29:37.121856",
        "meta_mean_motion": 15.75220895,
        "meta_eccentricity": 0.00077856,
        "meta_inclination": 51.6244,
        "meta_ra_of_asc_node": 84.9151,
        "meta_arg_of_pericenter": 337.8608,
        "meta_mean_anomaly": 22.2054,
        "meta_ephemeris_type": 0,
        "meta_classification_type": "U",
        "meta_norad_cat_id": 65729,
        "meta_element_set_no": 999,
        "meta_rev_at_epoch": 1472,
        "meta_bstar": 0.0012171562,
        "meta_mean_motion_dot": 0.0019065,
        "meta_mean_motion_ddot": 0,
        "tle_line1": "1 65729U 98067XH  25356.64556854  .00190650  00000+0  12172-2 0  9998",
        "tle_line2": "2 65729  51.6244  84.9151 0007785 337.8608  22.2054 15.75220895 14726"
      },
      "geometry": {
        "type": "Point",
        "coordinates": [
          -152.07227228709982,
          44.83125564755109
        ]
      }
    }
  ]
}